BEIDOU-3 M11 (C25)      
1 43603U 18067B   26171.26578027  .00000068  00000+0  00000+0 0  9994
2 43603  54.1780 180.8993 0004517  12.7566 347.2746  1.86227129 53206
BEIDOU-3 M13 (C32)      
1 43622U 18072A   26172.29454427 -.00000081  00000+0  00000+0 0  9998
2 43622  56.6282  62.5240 0007137 330.1286  29.8688  1.86231065 52738
BEIDOU-3 M14 (C33)      
1 43623U 18072B   26172.15997682 -.00000080  00000+0  00000+0 0  9998
2 43623  56.6300  62.5228 0006120   1.7619 358.2786  1.86231110 52726
BEIDOU-3 M16 (C35)      
1 43647U 18078A   26171.24134385 -.00000090  00000+0  00000+0 0  9993
2 43647  54.0868 299.8789 0007135  41.0909 318.9600  1.86232267 52212
BEIDOU-3 M15 (C34)      
1 43648U 18078B   26171.37062705 -.00000091  00000+0  00000+0 0  9995
2 43648  54.0825 299.8748 0004076  58.0000 302.0369  1.86232388 52234
BEIDOU-3 G1 (C59)       
1 43683U 18085A   26172.50531091 -.00000111  00000+0  00000+0 0  9990
2 43683   2.8805  97.2530 0008152 350.3805 163.9159  1.00270433 28100
BEIDOU-3 M17 (C36)      
1 43706U 18093A   26172.18891355  .00000078  00000+0  00000+0 0  9992
2 43706  54.1692 182.1601 0010176 292.3320 147.9319  1.86228431 51616
BEIDOU-3 M18 (C37)      
1 43707U 18093B   26170.32164601  .00000059  00000+0  00000+0 0  9993
2 43707  54.1697 182.2155 0008016 320.7909  39.1732  1.86226376 51578
BEIDOU-3 IGSO-1 (C38)   
1 44204U 19023A   26171.54826712 -.00000229  00000+0  00000+0 0  9993
2 44204  58.6998  37.6136 0025616 225.5297 321.1703  1.00290704  7242
BEIDOU-2 G8 (C01)       
1 44231U 19027A   26172.56504258 -.00000249  00000+0  00000+0 0  9990
2 44231   1.6705  74.5245 0010115 282.4745 260.6959  1.00269615 26120
BEIDOU-3 IGSO-2 (C39)   
1 44337U 19035A   26172.36139090 -.00000077  00000+0  00000+0 0  9991
2 44337  55.2486 158.8257 0039300 216.3163 144.0827  1.00265382 25714
BEIDOU-3 M24 (C46)      
1 44542U 19061A   26172.00112345  .00000076  00000+0  00000+0 0  9991
2 44542  54.3964 182.5989 0008377 358.6905   1.3314  1.86229071 45866
BEIDOU-3 M23 (C45)      
1 44543U 19061B   26171.17384045  .00000066  00000+0  00000+0 0  9996
2 44543  54.3949 182.5950 0005754 338.0602  98.8908  1.86227398 45859
